{"type": "FeatureCollection", "features": [ {"type": "Feature", "properties": {"norad_id": 33980, "name": "COSMOS 2251 DEB", "group": "cosmos-2251-debris", "lat": 51.196952986363215, "lon": 98.11889190965287, "alt_km": 713.154318600602, "timestamp": "2025-12-03T08:58:46.396125+00:00", "meta": {"OBJECT_NAME": "COSMOS 2251 DEB", "OBJECT_ID": "1993-036FP", "EPOCH": "2025-12-03T01:19:22.506240", "MEAN_MOTION": 14.58536927, "ECCENTRICITY": 0.0029234, "INCLINATION": 74.0215, "RA_OF_ASC_NODE": 77.8515, "ARG_OF_PERICENTER": 224.4498, "MEAN_ANOMALY": 315.3966, "EPHEMERIS_TYPE": 0, "CLASSIFICATION_TYPE": "U", "NORAD_CAT_ID": 33980, "ELEMENT_SET_NO": 999, "REV_AT_EPOCH": 88653, "BSTAR": 0.0011895, "MEAN_MOTION_DOT": 5.536e-05, "MEAN_MOTION_DDOT": 0}, "tle": {"line1": "1 33980U 93036FP  25337.05512160  .00005536  00000+0  11895-2 0  9998", "line2": "2 33980  74.0215  77.8515 0029234 224.4498 315.3966 14.58536927886533"}}, "geometry": {"type": "Point", "coordinates": [98.11889190965287, 51.196952986363215]}}, {"type": "Feature", "properties": {"norad_id": 33982, "name": "COSMOS 2251 DEB", "group": "cosmos-2251-debris", "lat": -34.62583415997471, "lon": -150.84788186315785, "alt_km": 744.7755787148071, "timestamp": "2025-12-03T08:58:46.396135+00:00", "meta": {"OBJECT_NAME": "COSMOS 2251 DEB", "OBJECT_ID": "1993-036FR", "EPOCH": "2025-12-03T03:12:20.403936", "MEAN_MOTION": 14.60155748, "ECCENTRICITY": 0.0074829, "INCLINATION": 74.0704, "RA_OF_ASC_NODE": 18.236, "ARG_OF_PERICENTER": 65.5862, "MEAN_ANOMALY": 326.0257, "EPHEMERIS_TYPE": 0, "CLASSIFICATION_TYPE": "U", "NORAD_CAT_ID": 33982, "ELEMENT_SET_NO": 999, "REV_AT_EPOCH": 89019, "BSTAR": 0.00041744, "MEAN_MOTION_DOT": 2.06e-05, "MEAN_MOTION_DDOT": 0}, "tle": {"line1": "1 33982U 93036FR  25337.13356949  .00002060  00000+0  41744-3 0  9996", "line2": "2 33982  74.0704  18.2360 0074829  65.5862 326.0257 14.60155748890194"}}, "geometry": {"type": "Point", "coordinates": [-150.84788186315785, -34.62583415997471]}}, {"type": "Feature", "properties": {"norad_id": 33983, "name": "COSMOS 2251 DEB", "group": "cosmos-2251-debris", "lat": 65.34375044473258, "lon": -53.90663041137371, "alt_km": 731.1900646215909, "timestamp": "2025-12-03T08:58:46.396145+00:00", "meta": {"OBJECT_NAME": "COSMOS 2251 DEB", "OBJECT_ID": "1993-036FS", "EPOCH": "2025-12-02T23:04:24.272256", "MEAN_MOTION": 14.50604281, "ECCENTRICITY": 0.0021424, "INCLINATION": 74.0488, "RA_OF_ASC_NODE": 165.4101, "ARG_OF_PERICENTER": 269.3715, "MEAN_ANOMALY": 205.1177, "EPHEMERIS_TYPE": 0, "CLASSIFICATION_TYPE": "U", "NORAD_CAT_ID": 33983, "ELEMENT_SET_NO": 999, "REV_AT_EPOCH": 88487, "BSTAR": 0.00065804, "MEAN_MOTION_DOT": 2.561e-05, "MEAN_MOTION_DDOT": 0}, "tle": {"line1": "1 33983U 93036FS  25336.96139204  .00002561  00000+0  65804-3 0  9999", "line2": "2 33983  74.0488 165.4101 0021424 269.3715 205.1177 14.50604281884872"}}, "geometry": {"type": "Point", "coordinates": [-53.90663041137371, 65.34375044473258]}}, {"type": "Feature", "properties": {"norad_id": 33984, "name": "COSMOS 2251 DEB", "group": "cosmos-2251-debris", "lat": 44.87695443484613, "lon": 21.775825386539406, "alt_km": 684.4840492242593, "timestamp": "2025-12-03T08:58:46.396155+00:00", "meta": {"OBJECT_NAME": "COSMOS 2251 DEB", "OBJECT_ID": "1993-036FT", "EPOCH": "2025-12-03T04:07:42.268800", "MEAN_MOTION": 14.66224475, "ECCENTRICITY": 0.002372, "INCLINATION": 74.0099, "RA_OF_ASC_NODE": 5.5759, "ARG_OF_PERICENTER": 205.9671, "MEAN_ANOMALY": 214.9409, "EPHEMERIS_TYPE": 0, "CLASSIFICATION_TYPE": "U", "NORAD_CAT_ID": 33984, "ELEMENT_SET_NO": 999, "REV_AT_EPOCH": 88926, "BSTAR": 0.0011151, "MEAN_MOTION_DOT": 6.141e-05, "MEAN_MOTION_DDOT": 0}, "tle": {"line1": "1 33984U 93036FT  25337.17201700  .00006141  00000+0  11151-2 0  9998", "line2": "2 33984  74.0099   5.5759 0023720 205.9671 214.9409 14.66224475889266"}}, "geometry": {"type": "Point", "coordinates": [21.775825386539406, 44.87695443484613]}}, {"type": "Feature", "properties": {"norad_id": 33986, "name": "COSMOS 2251 DEB", "group": "cosmos-2251-debris", "lat": 61.18230575684414, "lon": 108.71774544688127, "alt_km": 736.4326861785376, "timestamp": "2025-12-03T08:58:46.396165+00:00", "meta": {"OBJECT_NAME": "COSMOS 2251 DEB", "OBJECT_ID": "1993-036FV", "EPOCH": "2025-12-01T23:16:51.627936", "MEAN_MOTION": 14.4311158, "ECCENTRICITY": 0.00398909, "INCLINATION": 74.0364, "RA_OF_ASC_NODE": 322.6763, "ARG_OF_PERICENTER": 38.0925, "MEAN_ANOMALY": 344.0411, "EPHEMERIS_TYPE": 0, "CLASSIFICATION_TYPE": "U", "NORAD_CAT_ID": 33986, "ELEMENT_SET_NO": 999, "REV_AT_EPOCH": 87873, "BSTAR": 0.00087999302, "MEAN_MOTION_DOT": 2.956e-05, "MEAN_MOTION_DDOT": 0}, "tle": {"line1": "1 33986U 93036FV  25335.97004199  .00002956  00000+0  87999-3 0  9993", "line2": "2 33986  74.0364 322.6763 0039890  38.0925 344.0411 14.43111580878738"}}, "geometry": {"type": "Point", "coordinates": [108.71774544688127, 61.18230575684414]}}, {"type": "Feature", "properties": {"norad_id": 33990, "name": "COSMOS 2251 DEB", "group": "cosmos-2251-debris", "lat": 63.49634310702353, "lon": -23.650739423438782, "alt_km": 1136.302357490924, "timestamp": "2025-12-03T08:58:46.396176+00:00", "meta": {"OBJECT_NAME": "COSMOS 2251 DEB", "OBJECT_ID": "1993-036FZ", "EPOCH": "2025-12-02T22:16:49.059840", "MEAN_MOTION": 13.49942318, "ECCENTRICITY": 0.0407596, "INCLINATION": 73.9275, "RA_OF_ASC_NODE": 301.746, "ARG_OF_PERICENTER": 323.8177, "MEAN_ANOMALY": 94.621, "EPHEMERIS_TYPE": 0, "CLASSIFICATION_TYPE": "U", "NORAD_CAT_ID": 33990, "ELEMENT_SET_NO": 999, "REV_AT_EPOCH": 82597, "BSTAR": 0.001898, "MEAN_MOTION_DOT": 1.998e-05, "MEAN_MOTION_DDOT": 0}, "tle": {"line1": "1 33990U 93036FZ  25336.92834560  .00001998  00000+0  18980-2 0  9995", "line2": "2 33990  73.9275 301.7460 0407596 323.8177  94.6210 13.49942318825979"}}, "geometry": {"type": "Point", "coordinates": [-23.650739423438782, 63.49634310702353]}}, {"type": "Feature", "properties": {"norad_id": 33992, "name": "COSMOS 2251 DEB", "group": "cosmos-2251-debris", "lat": -73.29306896146204, "lon": -76.84344851978429, "alt_km": 714.4164029291242, "timestamp": "2025-12-03T08:58:46.396186+00:00", "meta": {"OBJECT_NAME": "COSMOS 2251 DEB", "OBJECT_ID": "1993-036GB", "EPOCH": "2025-12-03T03:04:38.608896", "MEAN_MOTION": 14.66091597, "ECCENTRICITY": 0.0051785, "INCLINATION": 74.0241, "RA_OF_ASC_NODE": 356.2746, "ARG_OF_PERICENTER": 117.2166, "MEAN_ANOMALY": 300.0616, "EPHEMERIS_TYPE": 0, "CLASSIFICATION_TYPE": "U", "NORAD_CAT_ID": 33992, "ELEMENT_SET_NO": 999, "REV_AT_EPOCH": 88984, "BSTAR": 0.0009004, "MEAN_MOTION_DOT": 5.015e-05, "MEAN_MOTION_DDOT": 0}, "tle": {"line1": "1 33992U 93036GB  25337.12822464  .00005015  00000+0  90040-3 0  9992", "line2": "2 33992  74.0241 356.2746 0051785 117.2166 300.0616 14.66091597889840"}}, "geometry": {"type": "Point", "coordinates": [-76.84344851978429, -73.29306896146204]}}, {"type": "Feature", "properties": {"norad_id": 33994, "name": "COSMOS 2251 DEB", "group": "cosmos-2251-debris", "lat": -49.79932244776925, "lon": -172.04982644845504, "alt_km": 747.6616644906999, "timestamp": "2025-12-03T08:58:46.396196+00:00", "meta": {"OBJECT_NAME": "COSMOS 2251 DEB", "OBJECT_ID": "1993-036GD", "EPOCH": "2025-12-03T03:07:45.581952", "MEAN_MOTION": 14.41205071, "ECCENTRICITY": 0.0023292, "INCLINATION": 74.0426, "RA_OF_ASC_NODE": 208.1913, "ARG_OF_PERICENTER": 344.355, "MEAN_ANOMALY": 139.0815, "EPHEMERIS_TYPE": 0, "CLASSIFICATION_TYPE": "U", "NORAD_CAT_ID": 33994, "ELEMENT_SET_NO": 999, "REV_AT_EPOCH": 88281, "BSTAR": 0.00012663, "MEAN_MOTION_DOT": 3.83e-06, "MEAN_MOTION_DDOT": 0}, "tle": {"line1": "1 33994U 93036GD  25337.13038868  .00000383  00000+0  12663-3 0  9990", "line2": "2 33994  74.0426 208.1913 0023292 344.3550 139.0815 14.41205071882818"}}, "geometry": {"type": "Point", "coordinates": [-172.04982644845504, -49.79932244776925]}}, {"type": "Feature", "properties": {"norad_id": 33995, "name": "COSMOS 2251 DEB", "group": "cosmos-2251-debris", "lat": -58.681480096340835, "lon": -15.500053489968023, "alt_km": 782.0045790000904, "timestamp": "2025-12-03T08:58:46.396206+00:00", "meta": {"OBJECT_NAME": "COSMOS 2251 DEB", "OBJECT_ID": "1993-036GE", "EPOCH": "2025-12-02T16:47:42.605088", "MEAN_MOTION": 14.34678917, "ECCENTRICITY": 0.0060941, "INCLINATION": 74.0598, "RA_OF_ASC_NODE": 137.7171, "ARG_OF_PERICENTER": 154.8256, "MEAN_ANOMALY": 205.589, "EPHEMERIS_TYPE": 0, "CLASSIFICATION_TYPE": "U", "NORAD_CAT_ID": 33995, "ELEMENT_SET_NO": 999, "REV_AT_EPOCH": 87375, "BSTAR": 0.0013539, "MEAN_MOTION_DOT": 3.889e-05, "MEAN_MOTION_DDOT": 0}, "tle": {"line1": "1 33995U 93036GE  25336.69979867  .00003889  00000+0  13539-2 0  9990", "line2": "2 33995  74.0598 137.7171 0060941 154.8256 205.5890 14.34678917873751"}}, "geometry": {"type": "Point", "coordinates": [-15.500053489968023, -58.681480096340835]}}, {"type": "Feature", "properties": {"norad_id": 33999, "name": "COSMOS 2251 DEB", "group": "cosmos-2251-debris", "lat": -26.33373836332346, "lon": 77.65784751889407, "alt_km": 609.2762701939319, "timestamp": "2025-12-03T08:58:46.396216+00:00", "meta": {"OBJECT_NAME": "COSMOS 2251 DEB", "OBJECT_ID": "1993-036GJ", "EPOCH": "2025-12-03T03:11:36.897216", "MEAN_MOTION": 14.83000078, "ECCENTRICITY": 0.0044697, "INCLINATION": 73.9202, "RA_OF_ASC_NODE": 249.9299, "ARG_OF_PERICENTER": 148.3164, "MEAN_ANOMALY": 212.0719, "EPHEMERIS_TYPE": 0, "CLASSIFICATION_TYPE": "U", "NORAD_CAT_ID": 33999, "ELEMENT_SET_NO": 999, "REV_AT_EPOCH": 89108, "BSTAR": 0.0019473, "MEAN_MOTION_DOT": 0.0001611, "MEAN_MOTION_DDOT": 0}, "tle": {"line1": "1 33999U 93036GJ  25337.13306594  .00016110  00000+0  19473-2 0  9999", "line2": "2 33999  73.9202 249.9299 0044697 148.3164 212.0719 14.83000078891088"}}, "geometry": {"type": "Point", "coordinates": [77.65784751889407, -26.33373836332346]}}]}